OBJECT_NAME,OBJECT_ID,EPOCH,MEAN_MOTION,ECCENTRICITY,INCLINATION,RA_OF_ASC_NODE,ARG_OF_PERICENTER,MEAN_ANOMALY,EPHEMERIS_TYPE,CLASSIFICATION_TYPE,NORAD_CAT_ID,ELEMENT_SET_NO,REV_AT_EPOCH,BSTAR,MEAN_MOTION_DOT,MEAN_MOTION_DDOT
EYESAT A (AO-27),1993-061C,2026-05-12T03:05:26.617920,14.30932122,.00080092,98.6892,199.5521,198.7096,161.3793,0,U,22825,999,70184,.35225633E-4,.48E-6,0
ITAMSAT (IO-26),1993-061D,2026-05-12T04:31:55.134048,14.31358030,.00088554,98.6840,199.5260,182.0397,178.0752,0,U,22826,999,70216,.32425966E-4,.41E-6,0
RADIO ROSTO (RS15),1994-085A,2026-05-12T04:43:32.456352,11.27583718,.01549434,64.8201,1.4246,10.4635,349.9454,0,U,23439,999,29184,-.11640603E-3,-.47E-6,0
JAS-2 (FO-29),1996-046B,2026-05-12T01:58:35.373504,13.53272280,.03496762,98.5280,345.8926,189.9733,169.4342,0,U,24278,999,46828,-.758768E-6,-.36E-6,0
FORTE,1997-047A,2026-05-12T05:30:21.989088,14.27929684,.00236257,69.9520,95.2381,321.3590,38.5840,0,U,24920,999,49355,.68987785E-4,.113E-5,0
TECHSAT 1B (GO-32),1998-043D,2026-05-12T05:46:07.942080,14.24421185,.0001053,99.0064,124.0946,14.1410,345.9798,0,U,25397,999,44621,.36037823E-4,.37E-6,0
ISS (ZARYA),1998-067A,2026-05-12T04:46:22.851840,15.49191856,.00074757,51.6312,118.2489,49.7974,310.3668,0,U,25544,999,56617,.93039285E-4,.4713E-4,0
IMAGE,2000-017A,2026-05-11T12:21:24.545088,1.68665748,.74599038,94.2002,314.8870,291.9767,8.1989,0,U,26113,999,16088,-.20584314E-1,.8E-7,0
CLUSTER II-FM7 (SAMBA),2000-041A,2026-05-14T16:04:58.613376,0.44842106,.90160394,149.8131,45.0140,261.7471,0.4872,0,U,26410,999,2015,0,.3081E-4,0
CLUSTER II-FM8 (TANGO),2000-045B,2026-05-14T15:29:09.526560,0.44404709,.90199801,150.0702,46.0108,262.6015,0.5030,0,U,26464,999,2014,0,.3165E-4,0
ODIN,2001-007A,2026-05-12T02:08:32.106336,15.65988801,.00019581,97.3937,170.9956,199.0774,161.0413,0,U,26702,999,38373,.69283065E-3,.71017E-3,0
OMNI-M1,2001-026A,2026-05-11T12:54:01.016064,3.92401500,.0015492,44.8444,253.7114,47.0887,313.0619,0,U,26857,999,20413,0,-.2E-6,0
PCSAT (NO-44),2001-043C,2026-05-12T06:12:23.189472,14.31941761,.00062866,67.0513,337.2000,263.7301,96.3085,0,U,26931,999,28530,.56732526E-4,.69E-6,0
PROBA-1,2001-049B,2026-05-12T06:59:30.251040,15.07361365,.00537767,97.9616,139.5731,243.8038,115.7654,0,U,26958,999,33821,.12613579E-3,.1897E-4,0
SAUDISAT 1C (SO-50),2002-058C,2026-05-12T06:43:38.275968,14.82969342,.00756328,64.5523,240.0721,269.0331,90.2109,0,U,27607,999,25913,.93605761E-4,.642E-5,0
CORIOLIS,2003-001A,2026-05-12T06:14:16.211040,14.19934649,.0013201,98.7136,139.6924,320.4205,39.6007,0,U,27640,999,20912,.55297202E-4,.74E-6,0
CUTE-1 (CO-55),2003-031E,2026-05-11T22:18:20.635200,14.24312642,.00083691,98.6747,140.9437,293.9469,66.0833,0,U,27844,999,18651,.10139468E-3,.19E-5,0
CUBESAT XI-IV (CO-57),2003-031J,2026-05-11T23:16:48.501120,14.23600890,.0008525,98.6780,140.7254,314.7788,45.2696,0,U,27848,999,18622,.92942547E-4,.168E-5,0
MOZHAETS 4 (RS22),2003-042A,2026-05-12T07:12:06.252768,14.73402214,.00119013,98.3476,315.6473,28.5091,96.2473,0,U,27939,999,21026,.91247072E-4,.538E-5,0
